ONEWEB-0709             
1 55172U 23004AJ  24302.25841244 -.00000089  00000+0 -28801-3 0  9990
2 55172  87.8894 140.0223 0001855  50.2002 309.9289 13.11414777 87636
ONEWEB-0710             
1 55173U 23004AK  24302.49735579  .00000061  00000+0  12436-3 0  9995
2 55173  87.9069 124.7574 0001405  88.5267 271.6025 13.17650955 89000
ONEWEB-0711             
1 55174U 23004AL  24302.53477819  .00000396  00000+0  10821-2 0  9997
2 55174  87.8892 139.9362 0000823 109.5822 250.5395 13.11416996 87644
ONEWEB-0713             
1 55175U 23004AM  24302.47713779  .00002077  00000+0  58240-2 0  9994
2 55175  87.8895 139.9553 0001426  96.3548 263.7742 13.11406899 87618
ONEWEB-0715             
1 55176U 23004AN  24302.54834581  .00000552  00000+0  15218-2 0  9992
2 55176  87.8892 139.9418 0001390  68.4422 291.6854 13.11414787 87661
ONEWEB-0716             
1 55177U 23004AP  24302.49060986  .00000095  00000+0  21114-3 0  9992
2 55177  87.9072 124.7534 0001687  90.2509 269.8816 13.17650781 89009
ONEWEB-0717             
1 55178U 23004AQ  24302.47370893  .00000075  00000+0  16060-3 0  9994
2 55178  87.9069 124.7189 0000686  96.1413 263.9797 13.17652383 89057
ONEWEB-0719             
1 55179U 23004AR  24302.48385577  .00000091  00000+0  20118-3 0  9998
2 55179  87.9068 124.7022 0001668  96.2473 263.8848 13.17649491 89008
ONEWEB-0530             
1 55796U 23029A   24302.50571314  .00000170  00000+0  38655-3 0  9992
2 55796  87.9295  33.1729 0001553 121.8426 238.2859 13.20771034 82383
ONEWEB-0534             
1 55797U 23029B   24302.49309623  .00000938  00000+0  22761-2 0  9995
2 55797  87.9298  33.1829 0001816 103.5655 256.5680 13.20767840 82386
ONEWEB-0556             
1 55798U 23029C   24302.49940465  .00000134  00000+0  29812-3 0  9994
2 55798  87.9297  33.1743 0002274 123.3137 236.8214 13.20772837 82381
ONEWEB-0562             
1 55799U 23029D   24302.48677713  .00000125  00000+0  27509-3 0  9998
2 55799  87.9296  33.1686 0001855 135.2410 224.8873 13.20770208 82385
ONEWEB-0563             
1 55800U 23029E   24302.55624087  .00000002  00000+0 -27864-4 0  9995
2 55800  87.9297  33.1696 0002099  99.2052 260.9319 13.20770978 82382
ONEWEB-0564             
1 55801U 23029F   24302.54991042 -.00001043  00000+0 -25970-2 0  9994
2 55801  87.9297  33.1576 0001526 115.4519 244.6773 13.20776881 82396
ONEWEB-0638             
1 55802U 23029G   24302.55351012 -.00000201  00000+0 -57706-3 0  9991
2 55802  87.9026  48.3998 0002126 115.2190 244.9160 13.14500118 81015
ONEWEB-0639             
1 55803U 23029H   24302.58121195  .00000056  00000+0  10825-3 0  9999
2 55803  87.9168  63.6188 0002784  80.2840 279.8607 13.19724621 80213
ONEWEB-0640             
1 55804U 23029J   24302.33469020 -.00000070  00000+0 -22263-3 0  9992
2 55804  87.9019  48.4362 0002461 108.9067 251.2330 13.14502841 81003
ONEWEB-0641             
1 55805U 23029K   24302.57645844  .00000104  00000+0  22849-3 0  9995
2 55805  87.9167  63.5982 0001838  92.0709 268.0634 13.19723881 80227
ONEWEB-0642             
1 55806U 23029L   24302.57172321  .00000043  00000+0  73951-4 0  9994
2 55806  87.9171  63.6272 0002388  78.6141 281.5260 13.19724083 80216
ONEWEB-0643             
1 55807U 23029M   24302.53291440  .00000160  00000+0  39655-3 0  9997
2 55807  87.9022  48.3762 0001962  71.8856 288.2488 13.14503462 81006
ONEWEB-0644             
1 55808U 23029N   24302.56699837  .00000147  00000+0  33500-3 0  9991
2 55808  87.9173  63.6269 0002019  83.8893 276.2470 13.19726916 80210
ONEWEB-0645             
1 55809U 23029P   24302.63883903 -.00000025  00000+0 -95277-4 0  9996
2 55809  87.9171  63.6122 0002140  92.9068 267.2310 13.19728244 80227
ONEWEB-0646             
1 55810U 23029Q   24302.59303881  .00000174  00000+0  40168-3 0  9996
2 55810  87.9170  63.6180 0001787  89.5929 270.5408 13.19723149 80208
ONEWEB-0648             
1 55811U 23029R   24302.57731043 -.00002679  00000+0 -72615-2 0  9995
2 55811  87.9025  48.3401 0002968  85.7064 274.4405 13.14515019 81014
ONEWEB-0649             
1 55812U 23029S   24302.63175113 -.00000042  00000+0 -13760-3 0  9992
2 55812  87.9168  63.6042 0002121  91.5601 268.5775 13.19723598 80243
ONEWEB-0650             
1 55813U 23029T   24302.62701697  .00000096  00000+0  20811-3 0  9996
2 55813  87.9170  63.6096 0001779  90.9593 269.1743 13.19723123 80210
ONEWEB-0652             
1 55814U 23029U   24302.55828068 -.00000193  00000+0 -55469-3 0  9998
2 55814  87.9022  48.3548 0001612 103.7645 256.3664 13.14501902 80984
ONEWEB-0653             
1 55815U 23029V   24302.54242798  .00000019  00000+0  17721-4 0  9993
2 55815  87.9027  48.3411 0001832 110.3291 249.8036 13.14502327 81011
ONEWEB-0654             
1 55816U 23029W   24302.53767123  .00000168  00000+0  41864-3 0  9996
2 55816  87.9023  48.3486 0001493 115.8149 244.3135 13.14502627 81030
ONEWEB-0656             
1 55817U 23029X   24302.54360482  .00000051  00000+0  93179-4 0  9993
2 55817  87.9297  33.1001 0001153 113.8613 246.2641 13.20772828 82398
ONEWEB-0657             
1 55818U 23029Y   24302.62227241  .00000090  00000+0  19352-3 0  9991
2 55818  87.9171  63.6156 0000857  77.1326 282.9902 13.19723516 80227
ONEWEB-0658             
1 55819U 23029Z   24302.61754445 -.00000004  00000+0 -41223-4 0  9992
2 55819  87.9170  63.5513 0001978  82.6551 277.4807 13.19723441 80230
ONEWEB-0660             
1 55820U 23029AA  24302.59158764  .00000134  00000+0  32741-3 0  9999
2 55820  87.9023  48.3116 0002064 100.0348 260.1015 13.14502556 81020
ONEWEB-0661             
1 55821U 23029AB  24302.55036067 -.00000165  00000+0 -48025-3 0  9995
2 55821  87.9029  48.3882 0002214 103.6418 256.4958 13.14501905 81000
ONEWEB-0662             
1 55822U 23029AC  24302.58524146  .00000122  00000+0  29353-3 0  9993
2 55822  87.9024  48.3884 0002013  96.1925 263.9434 13.14501292 81050
ONEWEB-0663             
1 55823U 23029AD  24302.53410095  .00005696  00000+0  13966-1 0  9998
2 55823  87.9294  33.1608 0002852  87.2902 272.8558 13.20782016 82388
ONEWEB-0664             
1 55824U 23029AE  24302.53099245 -.00000415  00000+0 -10533-2 0  9993
2 55824  87.9299  33.1775 0002033 113.7465 246.3882 13.20775994 82382
ONEWEB-0665             
1 55825U 23029AF  24302.54719233 -.00001090  00000+0 -29738-2 0  9998
2 55825  87.9027  48.3632 0002067  97.8089 262.3275 13.14507638 81028
ONEWEB-0666             
1 55826U 23029AG  24302.52465742  .00000060  00000+0  11519-3 0  9993
2 55826  87.9298  33.1691 0001355 106.4618 253.6664 13.20773915 82396
ONEWEB-0667             
1 55827U 23029AH  24302.51835601 -.00000618  00000+0 -15525-2 0  9999
2 55827  87.9299  33.1034 0002055 102.5021 257.6343 13.20772880 82389
ONEWEB-0669             
1 55828U 23029AJ  24302.51361233  .00000109  00000+0  23609-3 0  9991
2 55828  87.9296  33.1405 0001536 127.7561 232.3712 13.20769483 82385
ONEWEB-0670             
1 55829U 23029AK  24302.60108937  .00000280  00000+0  72135-3 0  9990
2 55829  87.9026  48.3629 0002036 109.0611 251.0739 13.14505611 81052
ONEWEB-0671             
1 55830U 23029AL  24302.30952955  .00000140  00000+0  31740-3 0  9998
2 55830  87.9169  63.6743 0001880 103.6558 256.4784 13.19727007 80176
ONEWEB-0672             
1 55831U 23029AM  24302.50887669  .00000078  00000+0  15922-3 0  9994
2 55831  87.9298  33.1265 0001394 102.8657 257.2632 13.20772121 82387
ONEWEB-0673             
1 55832U 23029AN  24302.58909412  .00000139  00000+0  31557-3 0  9994
2 55832  87.9165  63.5840 0001838  91.5127 268.6217 13.19723612 80210
ONEWEB-0674             
1 55833U 23029AP  24302.34102637 -.00000200  00000+0 -57440-3 0  9993
2 55833  87.9023  48.4135 0002188 109.4770 250.6596 13.14502428 81009
ONEWEB-0675             
1 55834U 23029AQ  24302.60488234  .00000109  00000+0  23945-3 0  9992
2 55834  87.9171  63.6199 0001366  86.1616 273.9673 13.19728049 80232
ONEWEB-0720             
1 55835U 23029AR  24302.59700522  .00000202  00000+0  47284-3 0  9994
2 55835  87.9171  63.6205 0002086  92.7901 267.3470 13.19723617 80150
ONEWEB-0537             
1 56046U 23043A   24302.39047610  .00000023  00000+0  26086-4 0  9994
2 56046  87.9121 347.6490 0001616  91.8114 268.3202 13.16595427 80433
ONEWEB-0538             
1 56047U 23043B   24302.38414430 -.00000007  00000+0 -51661-4 0  9993
2 56047  87.9122 347.6707 0001880  87.7185 272.4161 13.16595224 80447
ONEWEB-0546             
1 56048U 23043C   24302.37148037  .00000104  00000+0  23889-3 0  9996
2 56048  87.9127 347.6394 0001055 102.1158 258.0091 13.16593182 80433
ONEWEB-0547             
1 56049U 23043D   24302.45894820  .00000083  00000+0  16883-3 0  9996
2 56049  87.9349   2.8380 0001832  91.5695 268.5649 13.21829185 79394
ONEWEB-0548             
1 56050U 23043E   24302.16882000 -.00000013  00000+0 -67263-4 0  9997
2 56050  87.9125 347.7224 0002158 110.1466 249.9897 13.16594895 80405
ONEWEB-0549             
1 56051U 23043F   24302.45028957 -.00000005  00000+0 -43090-4 0  9996
2 56051  87.9351   2.8405 0001854  82.0994 278.0351 13.21827228 79391
ONEWEB-0550             
1 56052U 23043G   24302.43767237  .00000079  00000+0  15918-3 0  9992
2 56052  87.9346   2.8460 0001964 102.5898 257.5456 13.21828106 79394
ONEWEB-0551             
1 56053U 23043H   24302.48549426 -.00000069  00000+0 -21758-3 0  9996
2 56053  87.9123  18.0061 0001970  94.6812 265.4544 13.15549240 77945
ONEWEB-0552             
1 56054U 23043J   24302.20428811  .00000144  00000+0  31685-3 0  9993
2 56054  87.9349   2.9022 0002182  99.2786 260.8595 13.21826135 79363
ONEWEB-0553             
1 56055U 23043K   24302.37781346 -.00000061  00000+0 -19203-3 0  9999
2 56055  87.9124 347.6683 0001539  96.5939 263.5367 13.16593047 80447
ONEWEB-0554             
1 56056U 23043L   24302.36514502  .00000107  00000+0  24529-3 0  9993
2 56056  87.9125 347.6955 0002324 109.6793 250.4589 13.16592243 80424
